[{"OBJECT_NAME":"TRANSPORTER-15 OBJECT CX","OBJECT_ID":"2025-276CX","EPOCH":"2026-03-09T18:16:24.883104","MEAN_MOTION":15.19627935,"ECCENTRICITY":1.891e-5,"INCLINATION":97.4237,"RA_OF_ASC_NODE":144.0993,"ARG_OF_PERICENTER":69.686,"MEAN_ANOMALY":290.4395,"EPHEMERIS_TYPE":0,"CLASSIFICATION_TYPE":"U","NORAD_CAT_ID":66759,"ELEMENT_SET_NO":999,"REV_AT_EPOCH":1533,"BSTAR":0.00041936127,"MEAN_MOTION_DOT":8.872e-5,"MEAN_MOTION_DDOT":0},{"OBJECT_NAME":"CZ-2C DEB","OBJECT_ID":"2011-030E","EPOCH":"2026-03-09T22:02:28.057920","MEAN_MOTION":15.23147202,"ECCENTRICITY":0.00216086,"INCLINATION":98.1958,"RA_OF_ASC_NODE":48.5667,"ARG_OF_PERICENTER":313.6999,"MEAN_ANOMALY":74.4133,"EPHEMERIS_TYPE":0,"CLASSIFICATION_TYPE":"U","NORAD_CAT_ID":37734,"ELEMENT_SET_NO":999,"REV_AT_EPOCH":78227,"BSTAR":0.0029824689,"MEAN_MOTION_DOT":0.00071429,"MEAN_MOTION_DDOT":0}]
